[{"OBJECT_NAME":"STARLINK-4135","OBJECT_ID":"2022-086G","EPOCH":"2026-03-09T15:23:11.393376","MEAN_MOTION":15.0883614,"ECCENTRICITY":0.0001012,"INCLINATION":53.2164,"RA_OF_ASC_NODE":199.4451,"ARG_OF_PERICENTER":102.4325,"MEAN_ANOMALY":257.678,"EPHEMERIS_TYPE":0,"CLASSIFICATION_TYPE":"U","NORAD_CAT_ID":53248,"ELEMENT_SET_NO":999,"REV_AT_EPOCH":20130,"BSTAR":5.7494e-5,"MEAN_MOTION_DOT":6.27e-6,"MEAN_MOTION_DDOT":0},{"OBJECT_NAME":"OBJECT J","OBJECT_ID":"2017-042J","EPOCH":"2026-03-09T23:17:19.167936","MEAN_MOTION":15.08203331,"ECCENTRICITY":0.00078186,"INCLINATION":97.4246,"RA_OF_ASC_NODE":235.0467,"ARG_OF_PERICENTER":81.5059,"MEAN_ANOMALY":278.7055,"EPHEMERIS_TYPE":0,"CLASSIFICATION_TYPE":"U","NORAD_CAT_ID":42833,"ELEMENT_SET_NO":999,"REV_AT_EPOCH":47205,"BSTAR":0.00039182004,"MEAN_MOTION_DOT":6.006e-5,"MEAN_MOTION_DDOT":0}]
